LEMUR-1                 
1 40044U 14033AL  26064.86472839  .00002696  00000+0  31721-3 0  9997
2 40044  97.7710 217.0843 0049726  58.1584 302.4457 14.84775414630132
LEMUR-2-GREENBERG       
1 42837U 17042N   26064.92544172  .00019807  00000+0  73017-3 0  9995
2 42837  97.3767 246.3002 0009318  16.4949 343.6591 15.27801693472608
LEMUR-2-ANDIS           
1 42838U 17042P   26064.44028846  .00028096  00000+0  95685-3 0  9993
2 42838  97.3642 245.7075 0009410  18.4169 341.7410 15.30321098472567
LEMUR-2-MONSON          
1 42839U 17042Q   26064.91849777  .00017392  00000+0  70187-3 0  9997
2 42839  97.4024 246.4000 0006727   5.6555 354.4757 15.24836690472415
LEMUR-2-FURIAUS         
1 42840U 17042R   26064.56844376  .00029527  00000+0  11467-2 0  9998
2 42840  97.3740 244.1642 0007588  71.5362 288.6700 15.26004824472382
LEMUR-2-PETERG          
1 42841U 17042S   26064.94954798  .00020011  00000+0  70289-3 0  9998
2 42841  97.3970 250.1443 0003816 354.6830   5.4369 15.29420618472639
LEMUR-2-DEMBITZ         
1 42842U 17042T   26064.73935340  .00022428  00000+0  85294-3 0  9994
2 42842  97.3796 247.2311 0007139  29.8941 330.2704 15.26762203472541
LEMUR-2-ZACHARY         
1 42845U 17042W   26064.95306087  .00049310  00000+0  11650-2 0  9994
2 42845  97.3649 255.0120 0003746  30.6309 329.5156 15.41683522473258
LEMUR-2-JIN-LUEN        
1 43182U 18014C   26064.73185728  .00234399  00000+0  14100-2 0  9998
2 43182  97.5453 354.6445 0002249 128.0074 232.1395 15.77056809444840
LEMUR-2-KADI            
1 43184U 18014E   26064.82935088  .00096891  00000+0  10483-2 0  9995
2 43184  97.4718 349.2782 0000772  75.0735 285.0609 15.63272470444780
LEMUR-2-AMANDA-SVANTE   
1 48269U 21034B   26064.71702671  .00029082  00000+0  10588-2 0  9992
2 48269  97.5836 140.7299 0002296 216.7339 143.3743 15.28171862265224
LEMUR-2-SPECIAL-K       
1 48273U 21034F   26064.70089486  .00079581  00000+0  16929-2 0  9992
2 48273  97.5722 145.8420 0001431 221.1939 138.9201 15.44684882265623
LEMUR-2-EMBRIONOVIS     
1 56970U 23084AQ  26064.88918129  .00009485  00000+0  28537-3 0  9991
2 56970  97.6125 205.4480 0008510 327.5892  32.4827 15.34565765151822
LEMUR-2-MANO            
1 57390U 23100E   26064.98096266  .00133427  00000+0  16522-2 0  9991
2 57390  99.4554  86.2853 0001648  62.9717 297.1701 15.59614178145908
LEMUR-2-DEVERILL-M-T    
1 57391U 23100F   26064.93383622  .00030958  00000+0  92604-3 0  9993
2 57391  99.4576  74.3188 0008473  39.3780 320.8071 15.34487487145383
LEMUR-2-BASS            
1 58259U 23174D   26064.73050813  .00020807  00000+0  52938-3 0  9997
2 58259  97.3889 148.2574 0008059 175.9597 184.1716 15.39589202129421
